{
  "norad_id": 46810,
  "name": "TIANQI-6",
  "history": [
    {
      "epoch": "2026-03-28T15:21:48.100320Z",
      "apogee_km": 553.932782040125,
      "perigee_km": 539.3115685270632,
      "latitude_deg": -1.621494325054677e-06,
      "longitude_deg": 126.09099304725717,
      "height_km": 552.8364704383318,
      "semi_major_axis_km": 6924.759175283593,
      "eccentricity": 0.00105572,
      "inclination_deg": 34.9984,
      "raan_deg": 182.5991,
      "arg_perigee_deg": 182.9705,
      "mean_anomaly_deg": 177.0943,
      "mean_motion_rev_day": 15.06592324
    }
  ]
}